{"fetched_at":"2026-03-29T16:36:15Z","count":15609,"tles":[{"name":"STARLINK-35026","line1":"1 65514U 25198Y   26087.68744870 -.00009440  00000+0 -30686-3 0  9997","line2":"2 65514  53.1578 183.1122 0001298  84.4559 275.6590 15.30214430 31523","category":"Starlink"}]}